{
    "links": {
        "self": "http://www.neowsapp.com/rest/v1/neo/3879219?api_key=iIulBulltgU6a56xZRHN4H3l9WmuAYTsLGpBGhQ2"
    },
    "id": "3879219",
    "neo_reference_id": "3879219",
    "name": "(2019 UB)",
    "designation": "2019 UB",
    "nasa_jpl_url": "http://ssd.jpl.nasa.gov/sbdb.cgi?sstr=3879219",
    "absolute_magnitude_h": 23.1,
    "estimated_diameter": {
        "kilometers": {
            "estimated_diameter_min": 0.063760979,
            "estimated_diameter_max": 0.1425738833
        },
        "meters": {
            "estimated_diameter_min": 63.7609789875,
            "estimated_diameter_max": 142.5738833281
        },
        "miles": {
            "estimated_diameter_min": 0.0396192233,
            "estimated_diameter_max": 0.0885912765
        },
        "feet": {
            "estimated_diameter_min": 209.1895703015,
            "estimated_diameter_max": 467.7620993781
        }
    },
    "is_potentially_hazardous_asteroid": false,
    "close_approach_data": [
        {
            "close_approach_date": "2019-10-18",
            "close_approach_date_full": "2019-Oct-18 12:40",
            "epoch_date_close_approach": 1571402400000,
            "relative_velocity": {
                "kilometers_per_second": "16.5251831973",
                "kilometers_per_hour": "59490.6595102552",
                "miles_per_hour": "36965.1822940249"
            },
            "miss_distance": {
                "astronomical": "0.0313148289",
                "lunar": "12.1814684421",
                "kilometers": "4684631.702854443",
                "miles": "2910895.1601515934"
            },
            "orbiting_body": "Earth"
        },
        {
            "close_approach_date": "2197-11-06",
            "close_approach_date_full": "2197-Nov-06 11:25",
            "epoch_date_close_approach": 7190249100000,
            "relative_velocity": {
                "kilometers_per_second": "22.080396501",
                "kilometers_per_hour": "79489.4274036796",
                "miles_per_hour": "49391.6389331363"
            },
            "miss_distance": {
                "astronomical": "0.2763156116",
                "lunar": "107.4867729124",
                "kilometers": "41336226.943107292",
                "miles": "25685140.3866609496"
            },
            "orbiting_body": "Earth"
        }
    ],
    "orbital_data": {
        "orbit_id": "5",
        "orbit_determination_date": "2020-09-11 07:45:09",
        "first_observation_date": "2019-10-17",
        "last_observation_date": "2019-10-30",
        "data_arc_in_days": 13,
        "observations_used": 47,
        "orbit_uncertainty": "8",
        "minimum_orbit_intersection": ".0102806",
        "jupiter_tisserand_invariant": "3.404",
        "epoch_osculation": "2458775.5",
        "eccentricity": ".5596894195739794",
        "semi_major_axis": "2.139625145535688",
        "inclination": "23.82736257266546",
        "ascending_node_longitude": "207.466047959471",
        "orbital_period": "1143.15459586068",
        "perihelion_distance": ".9420995897249274",
        "perihelion_argument": "145.0136502101888",
        "aphelion_distance": "3.337150701346448",
        "perihelion_time": "2458748.954109162288",
        "mean_anomaly": "8.359779802469523",
        "mean_motion": ".3149180358488228",
        "equinox": "J2000",
        "orbit_class": {
            "orbit_class_type": "APO",
            "orbit_class_description": "Near-Earth asteroid orbits which cross the Earth’s orbit similar to that of 1862 Apollo",
            "orbit_class_range": "a (semi-major axis) > 1.0 AU; q (perihelion) < 1.017 AU"
        }
    },
    "is_sentry_object": false
}